O3B FM4                 
1 39189U 13031B   17346.29812376 -.00000025  00000-0  00000+0 0  9994
2 39189   0.0273   8.3319 0001879  47.2899 304.3971  5.00115870 81588
